start=new Date('2023-04-06T00:00:00.000Z').valueOf();
sats=[{"APOAPSIS":"542.913","MEAN_MOTION_DOT":"0.00000202","TIME_SYSTEM":"UTC","TLE_LINE1":"1 52285U 22041AA  23095.67811983  .00000202  00000-0  30885-4 0  9995","EPHEMERIS_TYPE":"0","RA_OF_ASC_NODE":"228.1057","OBJECT_TYPE":"PAYLOAD","FILE":"3881153","MEAN_MOTION_DDOT":"0.0000000000000","MEAN_ANOMALY":"356.3203","MEAN_ELEMENT_THEORY":"SGP4","NORAD_CAT_ID":"52285","ARG_OF_PERICENTER":"3.7823","INCLINATION":"53.2165","PERIOD":"95.438","SITE":"AFETR","CLASSIFICATION_TYPE":"U","OBJECT_ID":"2022-041AA","BSTAR":"0.00003088500000","SEMIMAJOR_AXIS":"6917.904","ELEMENT_SET_NO":"999","LAUNCH_DATE":"2022-04-21","EPOCH":"2023-04-05T16:16:29.553312","OBJECT_NAME":"STARLINK-3775","REF_FRAME":"TEME","GP_ID":"229571663","RCS_SIZE":"LARGE","TLE_LINE2":"2 52285  53.2165 228.1057 0004545   3.7823 356.3203 15.08832322 52982","COUNTRY_CODE":"US","MEAN_MOTION":"15.08832322","DECAY_DATE":null,"PERIAPSIS":"536.625","ECCENTRICITY":"0.00045450","REV_AT_EPOCH":"5298","CENTER_NAME":"EARTH"},{"MEAN_MOTION_DDOT":"0.0000000000000","FILE":"3881153","EPHEMERIS_TYPE":"0","RA_OF_ASC_NODE":"218.2098","OBJECT_TYPE":"PAYLOAD","SITE":"AFETR","MEAN_ANOMALY":"265.9129","MEAN_ELEMENT_THEORY":"SGP4","NORAD_CAT_ID":"52286","ARG_OF_PERICENTER":"94.1983","PERIOD":"95.437","INCLINATION":"53.2147","TIME_SYSTEM":"UTC","APOAPSIS":"540.460","MEAN_MOTION_DOT":"0.00000645","TLE_LINE1":"1 52286U 22041AB  23095.65329042  .00000645  00000-0  58598-4 0  9996","TLE_LINE2":"2 52286  53.2147 218.2098 0001049  94.1983 265.9129 15.08843629 53115","MEAN_MOTION":"15.08843629","COUNTRY_CODE":"US","CENTER_NAME":"EARTH","DECAY_DATE":null,"PERIAPSIS":"539.009","ECCENTRICITY":"0.00010490","REV_AT_EPOCH":"5311","BSTAR":"0.00005859800000","CLASSIFICATION_TYPE":"U","OBJECT_ID":"2022-041AB","LAUNCH_DATE":"2022-04-21","ELEMENT_SET_NO":"999","EPOCH":"2023-04-05T15:40:44.292288","OBJECT_NAME":"STARLINK-3802","GP_ID":"229570428","RCS_SIZE":"LARGE","REF_FRAME":"TEME","SEMIMAJOR_AXIS":"6917.869"},{"TLE_LINE1":"1 52287U 22041AC  23095.60453435 -.00002708  00000-0 -15216-3 0  9999","TIME_SYSTEM":"UTC","APOAPSIS":"540.990","MEAN_MOTION_DOT":"-0.00002708","SITE":"AFETR","MEAN_ANOMALY":"257.6232","NORAD_CAT_ID":"52287","MEAN_ELEMENT_THEORY":"SGP4","ARG_OF_PERICENTER":"102.4957","PERIOD":"95.438","INCLINATION":"53.2157","FILE":"3880902","MEAN_MOTION_DDOT":"0.0000000000000","EPHEMERIS_TYPE":"0","RA_OF_ASC_NODE":"228.4304","OBJECT_TYPE":"PAYLOAD","LAUNCH_DATE":"2022-04-21","ELEMENT_SET_NO":"999","EPOCH":"2023-04-05T14:30:31.767840","OBJECT_NAME":"STARLINK-3822","RCS_SIZE":"LARGE","GP_ID":"229542408","REF_FRAME":"TEME","SEMIMAJOR_AXIS":"6917.908","BSTAR":"-0.00015216000000","CLASSIFICATION_TYPE":"U","OBJECT_ID":"2022-041AC","CENTER_NAME":"EARTH","DECAY_DATE":null,"PERIAPSIS":"538.556","ECCENTRICITY":"0.00017590","REV_AT_EPOCH":"5419","TLE_LINE2":"2 52287  53.2157 228.4304 0001759 102.4957 257.6232 15.08831025 54191","COUNTRY_CODE":"US","MEAN_MOTION":"15.08831025"},{"MEAN_ANOMALY":"269.9424","NORAD_CAT_ID":"52288","MEAN_ELEMENT_THEORY":"SGP4","ARG_OF_PERICENTER":"90.1723","INCLINATION":"53.2163","PERIOD":"95.438","SITE":"AFETR","EPHEMERIS_TYPE":"0","RA_OF_ASC_NODE":"218.2281","OBJECT_TYPE":"PAYLOAD","FILE":"3880842","MEAN_MOTION_DDOT":"0.0000000000000","TLE_LINE1":"1 52288U 22041AD  23095.64961442  .00000029  00000-0  19887-4 0  9997","APOAPSIS":"540.688","MEAN_MOTION_DOT":"0.00000029","TIME_SYSTEM":"UTC","DECAY_DATE":null,"PERIAPSIS":"538.827","ECCENTRICITY":"0.00013450","REV_AT_EPOCH":"5433","CENTER_NAME":"EARTH","TLE_LINE2":"2 52288  53.2163 218.2281 0001345  90.1723 269.9424 15.08836172 54338","MEAN_MOTION":"15.08836172","COUNTRY_CODE":"US","SEMIMAJOR_AXIS":"6917.892","EPOCH":"2023-04-05T15:35:26.685888","LAUNCH_DATE":"2022-04-21","ELEMENT_SET_NO":"999","OBJECT_NAME":"STARLINK-3776","GP_ID":"229513933","RCS_SIZE":"LARGE","REF_FRAME":"TEME","CLASSIFICATION_TYPE":"U","OBJECT_ID":"2022-041AD","BSTAR":"0.00001988700000"},{"LAUNCH_DATE":"2022-04-21","ELEMENT_SET_NO":"999","EPOCH":"2023-04-05T14:21:15.781248","GP_ID":"229538511","RCS_SIZE":"LARGE","REF_FRAME":"TEME","OBJECT_NAME":"STARLINK-3751","SEMIMAJOR_AXIS":"6917.876","BSTAR":"0.00024829000000","CLASSIFICATION_TYPE":"U","OBJECT_ID":"2022-041AE","CENTER_NAME":"EARTH","PERIAPSIS":"538.984","DECAY_DATE":null,"REV_AT_EPOCH":"5310","ECCENTRICITY":"0.00010950","TLE_LINE2":"2 52289  53.2147 218.4578 0001095  70.0228 290.0882 15.08841295 53100","COUNTRY_CODE":"US","MEAN_MOTION":"15.08841295","TLE_LINE1":"1 52289U 22041AE  23095.59809932  .00003666  00000-0  24829-3 0  9998","TIME_SYSTEM":"UTC","MEAN_MOTION_DOT":"0.00003666","APOAPSIS":"540.499","SITE":"AFETR","MEAN_ELEMENT_THEORY":"SGP4","NORAD_CAT_ID":"52289","MEAN_ANOMALY":"290.0882","INCLINATION":"53.2147","PERIOD":"95.437","ARG_OF_PERICENTER":"70.0228","MEAN_MOTION_DDOT":"0.0000000000000","FILE":"3880853","RA_OF_ASC_NODE":"218.4578","EPHEMERIS_TYPE":"0","OBJECT_TYPE":"PAYLOAD"},{"ARG_OF_PERICENTER":"84.1095","PERIOD":"95.437","INCLINATION":"53.2153","MEAN_ANOMALY":"275.9995","NORAD_CAT_ID":"52290","MEAN_ELEMENT_THEORY":"SGP4","SITE":"AFETR","OBJECT_TYPE":"PAYLOAD","EPHEMERIS_TYPE":"0","RA_OF_ASC_NODE":"218.3104","FILE":"3881153","MEAN_MOTION_DDOT":"0.0000000000000","TLE_LINE1":"1 52290U 22041AF  23095.64594065  .00004075  00000-0  27392-3 0  9997","APOAPSIS":"540.331","MEAN_MOTION_DOT":"0.00004075","TIME_SYSTEM":"UTC","ECCENTRICITY":"0.00008620","REV_AT_EPOCH":"5311","DECAY_DATE":null,"PERIAPSIS":"539.138","CENTER_NAME":"EARTH","COUNTRY_CODE":"US","MEAN_MOTION":"15.08843611","TLE_LINE2":"2 52290  53.2153 218.3104 0000862  84.1095 275.9995 15.08843611 53114","SEMIMAJOR_AXIS":"6917.869","OBJECT_NAME":"STARLINK-3772","GP_ID":"229570929","REF_FRAME":"TEME","RCS_SIZE":"LARGE","LAUNCH_DATE":"2022-04-21","EPOCH":"2023-04-05T15:30:09.272160","ELEMENT_SET_NO":"999","OBJECT_ID":"2022-041AF","CLASSIFICATION_TYPE":"U","BSTAR":"0.00027392000000"},{"FILE":"3881153","MEAN_MOTION_DDOT":"0.0000000000000","RA_OF_ASC_NODE":"218.1952","EPHEMERIS_TYPE":"0","OBJECT_TYPE":"PAYLOAD","SITE":"AFETR","NORAD_CAT_ID":"52291","MEAN_ELEMENT_THEORY":"SGP4","MEAN_ANOMALY":"287.0430","PERIOD":"95.436","INCLINATION":"53.2165","ARG_OF_PERICENTER":"73.0715","TIME_SYSTEM":"UTC","MEAN_MOTION_DOT":"0.00007920","APOAPSIS":"540.641","TLE_LINE1":"1 52291U 22041AG  23095.65695892  .00007920  00000-0  51484-3 0  9990","TLE_LINE2":"2 52291  53.2165 218.1952 0001395  73.0715 287.0430 15.08862833 53110","COUNTRY_CODE":"US","MEAN_MOTION":"15.08862833","CENTER_NAME":"EARTH","PERIAPSIS":"538.711","DECAY_DATE":null,"REV_AT_EPOCH":"5311","ECCENTRICITY":"0.00013950","BSTAR":"0.00051484000000","CLASSIFICATION_TYPE":"U","OBJECT_ID":"2022-041AG","LAUNCH_DATE":"2022-04-21","ELEMENT_SET_NO":"999","EPOCH":"2023-04-05T15:46:01.250688","RCS_SIZE":"LARGE","GP_ID":"229570679","REF_FRAME":"TEME","OBJECT_NAME":"STARLINK-3773","SEMIMAJOR_AXIS":"6917.811"},{"MEAN_MOTION_DDOT":"0.0000000000000","FILE":"3881153","OBJECT_TYPE":"PAYLOAD","EPHEMERIS_TYPE":"0","RA_OF_ASC_NODE":"218.2932","SITE":"AFETR","ARG_OF_PERICENTER":"93.7383","PERIOD":"95.437","INCLINATION":"53.2144","MEAN_ANOMALY":"266.3749","MEAN_ELEMENT_THEORY":"SGP4","NORAD_CAT_ID":"52292","TIME_SYSTEM":"UTC","APOAPSIS":"540.580","MEAN_MOTION_DOT":"0.00005797","TLE_LINE1":"1 52292U 22041AH  23095.63489093  .00005797  00000-0  38198-3 0  9990","COUNTRY_CODE":"US","MEAN_MOTION":"15.08845041","TLE_LINE2":"2 52292  53.2144 218.2932 0001229  93.7383 266.3749 15.08845041 53118","CENTER_NAME":"EARTH","ECCENTRICITY":"0.00012290","REV_AT_EPOCH":"5311","DECAY_DATE":null,"PERIAPSIS":"538.880","BSTAR":"0.00038198000000","OBJECT_ID":"2022-041AH","CLASSIFICATION_TYPE":"U","OBJECT_NAME":"STARLINK-3753","RCS_SIZE":"LARGE","GP_ID":"229571930","REF_FRAME":"TEME","ELEMENT_SET_NO":"999","LAUNCH_DATE":"2022-04-21","EPOCH":"2023-04-05T15:14:14.576352","SEMIMAJOR_AXIS":"6917.865"},{"TLE_LINE2":"2 52293  53.2149 218.2482 0001509  89.5260 270.5905 15.08831780 53118","MEAN_MOTION":"15.08831780","COUNTRY_CODE":"US","PERIAPSIS":"538.727","DECAY_DATE":null,"REV_AT_EPOCH":"5311","ECCENTRICITY":"0.00015090","CENTER_NAME":"EARTH","CLASSIFICATION_TYPE":"U","OBJECT_ID":"2022-041AJ","BSTAR":"0.00007843300000","SEMIMAJOR_AXIS":"6917.906","LAUNCH_DATE":"2022-04-21","EPOCH":"2023-04-05T15:31:31.677888","ELEMENT_SET_NO":"999","RCS_SIZE":"LARGE","GP_ID":"229571664","REF_FRAME":"TEME","OBJECT_NAME":"STARLINK-3771","RA_OF_ASC_NODE":"218.2482","EPHEMERIS_TYPE":"0","OBJECT_TYPE":"PAYLOAD","MEAN_MOTION_DDOT":"0.0000000000000","FILE":"3881153","MEAN_ELEMENT_THEORY":"SGP4","NORAD_CAT_ID":"52293","MEAN_ANOMALY":"270.5905","INCLINATION":"53.2149","PERIOD":"95.438","ARG_OF_PERICENTER":"89.5260","SITE":"AFETR","MEAN_MOTION_DOT":"0.00000960","APOAPSIS":"540.814","TIME_SYSTEM":"UTC","TLE_LINE1":"1 52293U 22041AJ  23095.64689442  .00000960  00000-0  78433-4 0  9996"},{"CENTER_NAME":"EARTH","PERIAPSIS":"538.768","DECAY_DATE":null,"REV_AT_EPOCH":"5311","ECCENTRICITY":"0.00013940","TLE_LINE2":"2 52294  53.2143 218.3082 0001394  91.0824 269.0327 15.08844267 53111","MEAN_MOTION":"15.08844267","COUNTRY_CODE":"US","LAUNCH_DATE":"2022-04-21","ELEMENT_SET_NO":"999","EPOCH":"2023-04-05T15:08:56.623488","GP_ID":"229570429","REF_FRAME":"TEME","RCS_SIZE":"MEDIUM","OBJECT_NAME":"STARLINK-3777","SEMIMAJOR_AXIS":"6917.867","BSTAR":"0.00033667000000","CLASSIFICATION_TYPE":"U","OBJECT_ID":"2022-041AK","SITE":"AFETR","MEAN_ELEMENT_THEORY":"SGP4","NORAD_CAT_ID":"52294","MEAN_ANOMALY":"269.0327","INCLINATION":"53.2143","PERIOD":"95.437","ARG_OF_PERICENTER":"91.0824","FILE":"3881153","MEAN_MOTION_DDOT":"0.0000000000000","RA_OF_ASC_NODE":"218.3082","EPHEMERIS_TYPE":"0","OBJECT_TYPE":"PAYLOAD","TLE_LINE1":"1 52294U 22041AK  23095.63121092  .00005075  00000-0  33667-3 0  9999","TIME_SYSTEM":"UTC","MEAN_MOTION_DOT":"0.00005075","APOAPSIS":"540.697"}];
